,namaLokasi,dateTime,dateTimeISO,tanggalKuota,jamKuota,totalKuota,sisaKuota,jakiKuota,wilayah,kecamatan,kelurahan,jenisFaskes,ADDRESS,location,point,latitude,longitude
0,GEDUNG SMESCO - HIPPINDO,2021-07-13T11:00:00,2021-07-13T11:00:00.000Z,7/13/2021,11:00:00,500,454,deprecated,KOTA ADM. JAKARTA SELATAN,PANCORAN,PANCORAN,deprecated,"GEDUNG SMESCO - HIPPINDO,PANCORAN,JAKARTA,INDONESIA",,"(0.0, 0.0, 0.0)",0.0,0.0
1,GEDUNG SMESCO - HIPPINDO,2021-07-12T11:00:00,2021-07-12T11:00:00.000Z,7/12/2021,11:00:00,500,419,deprecated,KOTA ADM. JAKARTA SELATAN,PANCORAN,PANCORAN,deprecated,"GEDUNG SMESCO - HIPPINDO,PANCORAN,JAKARTA,INDONESIA",,"(0.0, 0.0, 0.0)",0.0,0.0
2,GEDUNG SMESCO - HIPPINDO,2021-07-13T10:00:00,2021-07-13T10:00:00.000Z,7/13/2021,10:00:00,500,313,deprecated,KOTA ADM. JAKARTA SELATAN,PANCORAN,PANCORAN,deprecated,"GEDUNG SMESCO - HIPPINDO,PANCORAN,JAKARTA,INDONESIA",,"(0.0, 0.0, 0.0)",0.0,0.0
3,GEDUNG SMESCO - HIPPINDO,2021-07-12T10:00:00,2021-07-12T10:00:00.000Z,7/12/2021,10:00:00,500,267,deprecated,KOTA ADM. JAKARTA SELATAN,PANCORAN,PANCORAN,deprecated,"GEDUNG SMESCO - HIPPINDO,PANCORAN,JAKARTA,INDONESIA",,"(0.0, 0.0, 0.0)",0.0,0.0
4,GEDUNG SMESCO - HIPPINDO,2021-07-13T12:00:00,2021-07-13T12:00:00.000Z,7/13/2021,12:00:00,300,211,deprecated,KOTA ADM. JAKARTA SELATAN,PANCORAN,PANCORAN,deprecated,"GEDUNG SMESCO - HIPPINDO,PANCORAN,JAKARTA,INDONESIA",,"(0.0, 0.0, 0.0)",0.0,0.0
5,GEDUNG SMESCO - HIPPINDO,2021-07-16T13:00:00,2021-07-16T13:00:00.000Z,7/16/2021,13:00:00,200,180,deprecated,KOTA ADM. JAKARTA SELATAN,PANCORAN,PANCORAN,deprecated,"GEDUNG SMESCO - HIPPINDO,PANCORAN,JAKARTA,INDONESIA",,"(0.0, 0.0, 0.0)",0.0,0.0
6,GEDUNG SMESCO - HIPPINDO,2021-07-16T14:00:00,2021-07-16T14:00:00.000Z,7/16/2021,14:00:00,200,178,deprecated,KOTA ADM. JAKARTA SELATAN,PANCORAN,PANCORAN,deprecated,"GEDUNG SMESCO - HIPPINDO,PANCORAN,JAKARTA,INDONESIA",,"(0.0, 0.0, 0.0)",0.0,0.0
7,MALL KOTA KASABLANKA LT 3,2021-07-16T11:00:00,2021-07-16T11:00:00.000Z,7/16/2021,11:00:00,400,177,deprecated,KOTA ADM. JAKARTA SELATAN,TEBET,MENTENG DALAM,deprecated,"MALL KOTA KASABLANKA LT 3,TEBET,JAKARTA,INDONESIA",,"(0.0, 0.0, 0.0)",0.0,0.0
8,GEDUNG SMESCO - HIPPINDO,2021-07-15T14:00:00,2021-07-15T14:00:00.000Z,7/15/2021,14:00:00,200,173,deprecated,KOTA ADM. JAKARTA SELATAN,PANCORAN,PANCORAN,deprecated,"GEDUNG SMESCO - HIPPINDO,PANCORAN,JAKARTA,INDONESIA",,"(0.0, 0.0, 0.0)",0.0,0.0
9,GEDUNG SMESCO - HIPPINDO,2021-07-15T13:00:00,2021-07-15T13:00:00.000Z,7/15/2021,13:00:00,200,173,deprecated,KOTA ADM. JAKARTA SELATAN,PANCORAN,PANCORAN,deprecated,"GEDUNG SMESCO - HIPPINDO,PANCORAN,JAKARTA,INDONESIA",,"(0.0, 0.0, 0.0)",0.0,0.0
10,GEDUNG SMESCO - HIPPINDO,2021-07-12T12:00:00,2021-07-12T12:00:00.000Z,7/12/2021,12:00:00,300,171,deprecated,KOTA ADM. JAKARTA SELATAN,PANCORAN,PANCORAN,deprecated,"GEDUNG SMESCO - HIPPINDO,PANCORAN,JAKARTA,INDONESIA",,"(0.0, 0.0, 0.0)",0.0,0.0
11,MALL KOTA KASABLANKA LT 3,2021-07-15T11:00:00,2021-07-15T11:00:00.000Z,7/15/2021,11:00:00,400,160,deprecated,KOTA ADM. JAKARTA SELATAN,TEBET,MENTENG DALAM,deprecated,"MALL KOTA KASABLANKA LT 3,TEBET,JAKARTA,INDONESIA",,"(0.0, 0.0, 0.0)",0.0,0.0
12,GEDUNG SMESCO - HIPPINDO,2021-07-14T13:00:00,2021-07-14T13:00:00.000Z,7/14/2021,13:00:00,200,149,deprecated,KOTA ADM. JAKARTA SELATAN,PANCORAN,PANCORAN,deprecated,"GEDUNG SMESCO - HIPPINDO,PANCORAN,JAKARTA,INDONESIA",,"(0.0, 0.0, 0.0)",0.0,0.0
13,GEDUNG SMESCO - HIPPINDO,2021-07-17T13:00:00,2021-07-17T13:00:00.000Z,7/17/2021,13:00:00,200,141,deprecated,KOTA ADM. JAKARTA SELATAN,PANCORAN,PANCORAN,deprecated,"GEDUNG SMESCO - HIPPINDO,PANCORAN,JAKARTA,INDONESIA",,"(0.0, 0.0, 0.0)",0.0,0.0
14,GEDUNG SMESCO - HIPPINDO,2021-07-14T14:00:00,2021-07-14T14:00:00.000Z,7/14/2021,14:00:00,200,138,deprecated,KOTA ADM. JAKARTA SELATAN,PANCORAN,PANCORAN,deprecated,"GEDUNG SMESCO - HIPPINDO,PANCORAN,JAKARTA,INDONESIA",,"(0.0, 0.0, 0.0)",0.0,0.0
15,GEDUNG SMESCO - HIPPINDO,2021-07-17T14:00:00,2021-07-17T14:00:00.000Z,7/17/2021,14:00:00,200,136,deprecated,KOTA ADM. JAKARTA SELATAN,PANCORAN,PANCORAN,deprecated,"GEDUNG SMESCO - HIPPINDO,PANCORAN,JAKARTA,INDONESIA",,"(0.0, 0.0, 0.0)",0.0,0.0
16,SDN PULAU KELAPA 01 PAGI,2021-07-13T10:00:00,2021-07-13T10:00:00.000Z,7/13/2021,10:00:00,100,100,deprecated,KEPULAUAN SERIBU,KEPULAUAN SERIBU UTARA,PULAU KELAPA,deprecated,"SDN PULAU KELAPA 01 PAGI,KEPULAUAN SERIBU UTARA,JAKARTA,INDONESIA",,"(0.0, 0.0, 0.0)",0.0,0.0
17,RPTRA PULAU TIDUNG,2021-07-13T09:00:00,2021-07-13T09:00:00.000Z,7/13/2021,9:00:00,100,100,deprecated,KEPULAUAN SERIBU,KEPULAUAN SERIBU SELATAN,PULAU TIDUNG,deprecated,"RPTRA PULAU TIDUNG,KEPULAUAN SERIBU SELATAN,JAKARTA,INDONESIA","RPTRA Pulau Tidung, Pulau Tidung, Kepulauan Seribu Selatan, Kepulauan Seribu, Daerah Khusus Ibukota Jakarta, Indonesia","(-5.797151449999999, 106.493187, 0.0)",-5.797151449999999,106.493187
18,SDN PULAU KELAPA 01 PAGI,2021-07-12T09:00:00,2021-07-12T09:00:00.000Z,7/12/2021,9:00:00,100,100,deprecated,KEPULAUAN SERIBU,KEPULAUAN SERIBU UTARA,PULAU KELAPA,deprecated,"SDN PULAU KELAPA 01 PAGI,KEPULAUAN SERIBU UTARA,JAKARTA,INDONESIA",,"(0.0, 0.0, 0.0)",0.0,0.0
19,SDN PULAU KELAPA 01 PAGI,2021-07-16T09:00:00,2021-07-16T09:00:00.000Z,7/16/2021,9:00:00,100,100,deprecated,KEPULAUAN SERIBU,KEPULAUAN SERIBU UTARA,PULAU KELAPA,deprecated,"SDN PULAU KELAPA 01 PAGI,KEPULAUAN SERIBU UTARA,JAKARTA,INDONESIA",,"(0.0, 0.0, 0.0)",0.0,0.0
20,RPTRA PULAU TIDUNG,2021-07-14T11:00:00,2021-07-14T11:00:00.000Z,7/14/2021,11:00:00,100,100,deprecated,KEPULAUAN SERIBU,KEPULAUAN SERIBU SELATAN,PULAU TIDUNG,deprecated,"RPTRA PULAU TIDUNG,KEPULAUAN SERIBU SELATAN,JAKARTA,INDONESIA","RPTRA Pulau Tidung, Pulau Tidung, Kepulauan Seribu Selatan, Kepulauan Seribu, Daerah Khusus Ibukota Jakarta, Indonesia","(-5.797151449999999, 106.493187, 0.0)",-5.797151449999999,106.493187
21,SDN PULAU KELAPA 01 PAGI,2021-07-12T11:00:00,2021-07-12T11:00:00.000Z,7/12/2021,11:00:00,100,100,deprecated,KEPULAUAN SERIBU,KEPULAUAN SERIBU UTARA,PULAU KELAPA,deprecated,"SDN PULAU KELAPA 01 PAGI,KEPULAUAN SERIBU UTARA,JAKARTA,INDONESIA",,"(0.0, 0.0, 0.0)",0.0,0.0
22,RPTRA PULAU TIDUNG,2021-07-14T10:00:00,2021-07-14T10:00:00.000Z,7/14/2021,10:00:00,100,100,deprecated,KEPULAUAN SERIBU,KEPULAUAN SERIBU SELATAN,PULAU TIDUNG,deprecated,"RPTRA PULAU TIDUNG,KEPULAUAN SERIBU SELATAN,JAKARTA,INDONESIA","RPTRA Pulau Tidung, Pulau Tidung, Kepulauan Seribu Selatan, Kepulauan Seribu, Daerah Khusus Ibukota Jakarta, Indonesia","(-5.797151449999999, 106.493187, 0.0)",-5.797151449999999,106.493187
23,SDN PULAU KELAPA 01 PAGI,2021-07-16T11:00:00,2021-07-16T11:00:00.000Z,7/16/2021,11:00:00,100,100,deprecated,KEPULAUAN SERIBU,KEPULAUAN SERIBU UTARA,PULAU KELAPA,deprecated,"SDN PULAU KELAPA 01 PAGI,KEPULAUAN SERIBU UTARA,JAKARTA,INDONESIA",,"(0.0, 0.0, 0.0)",0.0,0.0
24,RPTRA PULAU TIDUNG,2021-07-15T11:00:00,2021-07-15T11:00:00.000Z,7/15/2021,11:00:00,100,100,deprecated,KEPULAUAN SERIBU,KEPULAUAN SERIBU SELATAN,PULAU TIDUNG,deprecated,"RPTRA PULAU TIDUNG,KEPULAUAN SERIBU SELATAN,JAKARTA,INDONESIA","RPTRA Pulau Tidung, Pulau Tidung, Kepulauan Seribu Selatan, Kepulauan Seribu, Daerah Khusus Ibukota Jakarta, Indonesia","(-5.797151449999999, 106.493187, 0.0)",-5.797151449999999,106.493187
25,RPTRA PULAU TIDUNG,2021-07-13T10:00:00,2021-07-13T10:00:00.000Z,7/13/2021,10:00:00,100,100,deprecated,KEPULAUAN SERIBU,KEPULAUAN SERIBU SELATAN,PULAU TIDUNG,deprecated,"RPTRA PULAU TIDUNG,KEPULAUAN SERIBU SELATAN,JAKARTA,INDONESIA","RPTRA Pulau Tidung, Pulau Tidung, Kepulauan Seribu Selatan, Kepulauan Seribu, Daerah Khusus Ibukota Jakarta, Indonesia","(-5.797151449999999, 106.493187, 0.0)",-5.797151449999999,106.493187
26,SDN PULAU KELAPA 01 PAGI,2021-07-13T11:00:00,2021-07-13T11:00:00.000Z,7/13/2021,11:00:00,100,100,deprecated,KEPULAUAN SERIBU,KEPULAUAN SERIBU UTARA,PULAU KELAPA,deprecated,"SDN PULAU KELAPA 01 PAGI,KEPULAUAN SERIBU UTARA,JAKARTA,INDONESIA",,"(0.0, 0.0, 0.0)",0.0,0.0
27,RPTRA PULAU TIDUNG,2021-07-16T09:00:00,2021-07-16T09:00:00.000Z,7/16/2021,9:00:00,100,100,deprecated,KEPULAUAN SERIBU,KEPULAUAN SERIBU SELATAN,PULAU TIDUNG,deprecated,"RPTRA PULAU TIDUNG,KEPULAUAN SERIBU SELATAN,JAKARTA,INDONESIA","RPTRA Pulau Tidung, Pulau Tidung, Kepulauan Seribu Selatan, Kepulauan Seribu, Daerah Khusus Ibukota Jakarta, Indonesia","(-5.797151449999999, 106.493187, 0.0)",-5.797151449999999,106.493187
28,RPTRA PULAU TIDUNG,2021-07-12T11:00:00,2021-07-12T11:00:00.000Z,7/12/2021,11:00:00,100,100,deprecated,KEPULAUAN SERIBU,KEPULAUAN SERIBU SELATAN,PULAU TIDUNG,deprecated,"RPTRA PULAU TIDUNG,KEPULAUAN SERIBU SELATAN,JAKARTA,INDONESIA","RPTRA Pulau Tidung, Pulau Tidung, Kepulauan Seribu Selatan, Kepulauan Seribu, Daerah Khusus Ibukota Jakarta, Indonesia","(-5.797151449999999, 106.493187, 0.0)",-5.797151449999999,106.493187
29,SDN PULAU KELAPA 01 PAGI,2021-07-14T10:00:00,2021-07-14T10:00:00.000Z,7/14/2021,10:00:00,100,100,deprecated,KEPULAUAN SERIBU,KEPULAUAN SERIBU UTARA,PULAU KELAPA,deprecated,"SDN PULAU KELAPA 01 PAGI,KEPULAUAN SERIBU UTARA,JAKARTA,INDONESIA",,"(0.0, 0.0, 0.0)",0.0,0.0
30,SDN PULAU KELAPA 01 PAGI,2021-07-15T11:00:00,2021-07-15T11:00:00.000Z,7/15/2021,11:00:00,100,100,deprecated,KEPULAUAN SERIBU,KEPULAUAN SERIBU UTARA,PULAU KELAPA,deprecated,"SDN PULAU KELAPA 01 PAGI,KEPULAUAN SERIBU UTARA,JAKARTA,INDONESIA",,"(0.0, 0.0, 0.0)",0.0,0.0
31,RPTRA PULAU TIDUNG,2021-07-14T09:00:00,2021-07-14T09:00:00.000Z,7/14/2021,9:00:00,100,100,deprecated,KEPULAUAN SERIBU,KEPULAUAN SERIBU SELATAN,PULAU TIDUNG,deprecated,"RPTRA PULAU TIDUNG,KEPULAUAN SERIBU SELATAN,JAKARTA,INDONESIA","RPTRA Pulau Tidung, Pulau Tidung, Kepulauan Seribu Selatan, Kepulauan Seribu, Daerah Khusus Ibukota Jakarta, Indonesia","(-5.797151449999999, 106.493187, 0.0)",-5.797151449999999,106.493187
32,SDN PULAU KELAPA 01 PAGI,2021-07-14T11:00:00,2021-07-14T11:00:00.000Z,7/14/2021,11:00:00,100,100,deprecated,KEPULAUAN SERIBU,KEPULAUAN SERIBU UTARA,PULAU KELAPA,deprecated,"SDN PULAU KELAPA 01 PAGI,KEPULAUAN SERIBU UTARA,JAKARTA,INDONESIA",,"(0.0, 0.0, 0.0)",0.0,0.0
33,SDN PULAU KELAPA 01 PAGI,2021-07-15T09:00:00,2021-07-15T09:00:00.000Z,7/15/2021,9:00:00,100,100,deprecated,KEPULAUAN SERIBU,KEPULAUAN SERIBU UTARA,PULAU KELAPA,deprecated,"SDN PULAU KELAPA 01 PAGI,KEPULAUAN SERIBU UTARA,JAKARTA,INDONESIA",,"(0.0, 0.0, 0.0)",0.0,0.0
34,RPTRA PULAU TIDUNG,2021-07-15T10:00:00,2021-07-15T10:00:00.000Z,7/15/2021,10:00:00,100,100,deprecated,KEPULAUAN SERIBU,KEPULAUAN SERIBU SELATAN,PULAU TIDUNG,deprecated,"RPTRA PULAU TIDUNG,KEPULAUAN SERIBU SELATAN,JAKARTA,INDONESIA","RPTRA Pulau Tidung, Pulau Tidung, Kepulauan Seribu Selatan, Kepulauan Seribu, Daerah Khusus Ibukota Jakarta, Indonesia","(-5.797151449999999, 106.493187, 0.0)",-5.797151449999999,106.493187
35,SDN PULAU KELAPA 01 PAGI,2021-07-13T09:00:00,2021-07-13T09:00:00.000Z,7/13/2021,9:00:00,100,100,deprecated,KEPULAUAN SERIBU,KEPULAUAN SERIBU UTARA,PULAU KELAPA,deprecated,"SDN PULAU KELAPA 01 PAGI,KEPULAUAN SERIBU UTARA,JAKARTA,INDONESIA",,"(0.0, 0.0, 0.0)",0.0,0.0
36,SDN PULAU KELAPA 01 PAGI,2021-07-14T09:00:00,2021-07-14T09:00:00.000Z,7/14/2021,9:00:00,100,100,deprecated,KEPULAUAN SERIBU,KEPULAUAN SERIBU UTARA,PULAU KELAPA,deprecated,"SDN PULAU KELAPA 01 PAGI,KEPULAUAN SERIBU UTARA,JAKARTA,INDONESIA",,"(0.0, 0.0, 0.0)",0.0,0.0
37,RPTRA PULAU TIDUNG,2021-07-13T11:00:00,2021-07-13T11:00:00.000Z,7/13/2021,11:00:00,100,100,deprecated,KEPULAUAN SERIBU,KEPULAUAN SERIBU SELATAN,PULAU TIDUNG,deprecated,"RPTRA PULAU TIDUNG,KEPULAUAN SERIBU SELATAN,JAKARTA,INDONESIA","RPTRA Pulau Tidung, Pulau Tidung, Kepulauan Seribu Selatan, Kepulauan Seribu, Daerah Khusus Ibukota Jakarta, Indonesia","(-5.797151449999999, 106.493187, 0.0)",-5.797151449999999,106.493187
38,RPTRA PULAU TIDUNG,2021-07-16T10:00:00,2021-07-16T10:00:00.000Z,7/16/2021,10:00:00,100,100,deprecated,KEPULAUAN SERIBU,KEPULAUAN SERIBU SELATAN,PULAU TIDUNG,deprecated,"RPTRA PULAU TIDUNG,KEPULAUAN SERIBU SELATAN,JAKARTA,INDONESIA","RPTRA Pulau Tidung, Pulau Tidung, Kepulauan Seribu Selatan, Kepulauan Seribu, Daerah Khusus Ibukota Jakarta, Indonesia","(-5.797151449999999, 106.493187, 0.0)",-5.797151449999999,106.493187
39,RPTRA PULAU TIDUNG,2021-07-15T09:00:00,2021-07-15T09:00:00.000Z,7/15/2021,9:00:00,100,100,deprecated,KEPULAUAN SERIBU,KEPULAUAN SERIBU SELATAN,PULAU TIDUNG,deprecated,"RPTRA PULAU TIDUNG,KEPULAUAN SERIBU SELATAN,JAKARTA,INDONESIA","RPTRA Pulau Tidung, Pulau Tidung, Kepulauan Seribu Selatan, Kepulauan Seribu, Daerah Khusus Ibukota Jakarta, Indonesia","(-5.797151449999999, 106.493187, 0.0)",-5.797151449999999,106.493187
40,RPTRA PULAU TIDUNG,2021-07-12T10:00:00,2021-07-12T10:00:00.000Z,7/12/2021,10:00:00,100,100,deprecated,KEPULAUAN SERIBU,KEPULAUAN SERIBU SELATAN,PULAU TIDUNG,deprecated,"RPTRA PULAU TIDUNG,KEPULAUAN SERIBU SELATAN,JAKARTA,INDONESIA","RPTRA Pulau Tidung, Pulau Tidung, Kepulauan Seribu Selatan, Kepulauan Seribu, Daerah Khusus Ibukota Jakarta, Indonesia","(-5.797151449999999, 106.493187, 0.0)",-5.797151449999999,106.493187
41,SDN PULAU KELAPA 01 PAGI,2021-07-15T10:00:00,2021-07-15T10:00:00.000Z,7/15/2021,10:00:00,100,100,deprecated,KEPULAUAN SERIBU,KEPULAUAN SERIBU UTARA,PULAU KELAPA,deprecated,"SDN PULAU KELAPA 01 PAGI,KEPULAUAN SERIBU UTARA,JAKARTA,INDONESIA",,"(0.0, 0.0, 0.0)",0.0,0.0
42,SDN PULAU KELAPA 01 PAGI,2021-07-12T10:00:00,2021-07-12T10:00:00.000Z,7/12/2021,10:00:00,100,99,deprecated,KEPULAUAN SERIBU,KEPULAUAN SERIBU UTARA,PULAU KELAPA,deprecated,"SDN PULAU KELAPA 01 PAGI,KEPULAUAN SERIBU UTARA,JAKARTA,INDONESIA",,"(0.0, 0.0, 0.0)",0.0,0.0
43,RPTRA PULAU TIDUNG,2021-07-12T09:00:00,2021-07-12T09:00:00.000Z,7/12/2021,9:00:00,100,99,deprecated,KEPULAUAN SERIBU,KEPULAUAN SERIBU SELATAN,PULAU TIDUNG,deprecated,"RPTRA PULAU TIDUNG,KEPULAUAN SERIBU SELATAN,JAKARTA,INDONESIA","RPTRA Pulau Tidung, Pulau Tidung, Kepulauan Seribu Selatan, Kepulauan Seribu, Daerah Khusus Ibukota Jakarta, Indonesia","(-5.797151449999999, 106.493187, 0.0)",-5.797151449999999,106.493187
44,PUSKESMAS KELURAHAN PETOJO SELATAN,2021-07-14T11:00:00,2021-07-14T11:00:00.000Z,7/14/2021,11:00:00,100,99,deprecated,KOTA ADM. JAKARTA PUSAT,GAMBIR,PETOJO SELATAN,deprecated,"PUSKESMAS KELURAHAN PETOJO SELATAN,GAMBIR,JAKARTA,INDONESIA","Puskesmas Kelurahan Petojo Selatan, Jalan Taman Tanah Abang III, RW 04, Petojo Selatan, Gambir, Jakarta Pusat, Daerah Khusus Ibukota Jakarta, 10160, Indonesia","(-6.17687555, 106.8144249, 0.0)",-6.17687555,106.8144249
45,SDN PULAU KELAPA 01 PAGI,2021-07-16T10:00:00,2021-07-16T10:00:00.000Z,7/16/2021,10:00:00,100,99,deprecated,KEPULAUAN SERIBU,KEPULAUAN SERIBU UTARA,PULAU KELAPA,deprecated,"SDN PULAU KELAPA 01 PAGI,KEPULAUAN SERIBU UTARA,JAKARTA,INDONESIA",,"(0.0, 0.0, 0.0)",0.0,0.0
46,GOR MANGGA DUA SELATAN,2021-07-15T10:00:00,2021-07-15T10:00:00.000Z,7/15/2021,10:00:00,100,98,deprecated,KOTA ADM. JAKARTA PUSAT,SAWAH BESAR,MANGGA DUA SELATAN,deprecated,"GOR MANGGA DUA SELATAN,SAWAH BESAR,JAKARTA,INDONESIA",,"(0.0, 0.0, 0.0)",0.0,0.0
47,RPTRA PULAU TIDUNG,2021-07-16T11:00:00,2021-07-16T11:00:00.000Z,7/16/2021,11:00:00,100,98,deprecated,KEPULAUAN SERIBU,KEPULAUAN SERIBU SELATAN,PULAU TIDUNG,deprecated,"RPTRA PULAU TIDUNG,KEPULAUAN SERIBU SELATAN,JAKARTA,INDONESIA","RPTRA Pulau Tidung, Pulau Tidung, Kepulauan Seribu Selatan, Kepulauan Seribu, Daerah Khusus Ibukota Jakarta, Indonesia","(-5.797151449999999, 106.493187, 0.0)",-5.797151449999999,106.493187
48,RPTRA PLANET SENEN,2021-07-14T10:00:00,2021-07-14T10:00:00.000Z,7/14/2021,10:00:00,100,97,deprecated,KOTA ADM. JAKARTA PUSAT,SENEN,SENEN,deprecated,"RPTRA PLANET SENEN,SENEN,JAKARTA,INDONESIA",,"(0.0, 0.0, 0.0)",0.0,0.0
49,RPTRA PLANET SENEN,2021-07-15T09:00:00,2021-07-15T09:00:00.000Z,7/15/2021,9:00:00,100,97,deprecated,KOTA ADM. JAKARTA PUSAT,SENEN,SENEN,deprecated,"RPTRA PLANET SENEN,SENEN,JAKARTA,INDONESIA",,"(0.0, 0.0, 0.0)",0.0,0.0
50,SMP 112 PEJAGALAN,2021-07-15T10:00:00,2021-07-15T10:00:00.000Z,7/15/2021,10:00:00,100,96,deprecated,KOTA ADM. JAKARTA UTARA,PENJARINGAN,PEJAGALAN,deprecated,"SMP 112 PEJAGALAN,PENJARINGAN,JAKARTA,INDONESIA",,"(0.0, 0.0, 0.0)",0.0,0.0
51,SDN 01 PINANGSIA,2021-07-15T10:00:00,2021-07-15T10:00:00.000Z,7/15/2021,10:00:00,100,96,deprecated,KOTA ADM. JAKARTA BARAT,TAMAN SARI,PINANGSIA,deprecated,"SDN 01 PINANGSIA,TAMAN SARI,JAKARTA,INDONESIA",,"(0.0, 0.0, 0.0)",0.0,0.0
52,RPTRA PLANET SENEN,2021-07-15T10:00:00,2021-07-15T10:00:00.000Z,7/15/2021,10:00:00,100,96,deprecated,KOTA ADM. JAKARTA PUSAT,SENEN,SENEN,deprecated,"RPTRA PLANET SENEN,SENEN,JAKARTA,INDONESIA",,"(0.0, 0.0, 0.0)",0.0,0.0
53,SMPN 8 JAKARTA,2021-07-15T09:00:00,2021-07-15T09:00:00.000Z,7/15/2021,9:00:00,100,95,deprecated,KOTA ADM. JAKARTA PUSAT,MENTENG,MENTENG,deprecated,"SMPN 8 JAKARTA,MENTENG,JAKARTA,INDONESIA","SMPN 8, Jalan Pangeran Diponegoro, RW 02, Menteng, Jakarta Pusat, Daerah Khusus Ibukota Jakarta, 10310, Indonesia","(-6.2011131, 106.8428777, 0.0)",-6.2011131,106.8428777
54,RPTRA PLANET SENEN,2021-07-16T10:00:00,2021-07-16T10:00:00.000Z,7/16/2021,10:00:00,100,95,deprecated,KOTA ADM. JAKARTA PUSAT,SENEN,SENEN,deprecated,"RPTRA PLANET SENEN,SENEN,JAKARTA,INDONESIA",,"(0.0, 0.0, 0.0)",0.0,0.0
55,RPTRA SUNGAI BAMBU,2021-07-15T11:00:00,2021-07-15T11:00:00.000Z,7/15/2021,11:00:00,100,95,deprecated,KOTA ADM. JAKARTA UTARA,TANJUNG PRIOK,SUNGAI BAMBU,deprecated,"RPTRA SUNGAI BAMBU,TANJUNG PRIOK,JAKARTA,INDONESIA","RPTRA Sungai Bambu, Sungai Bambu, Tanjung Priok, Jakarta Utara, Daerah Khusus Ibukota Jakarta, 14330, Indonesia","(-6.1302611, 106.89094102845658, 0.0)",-6.1302611,106.89094102845658
56,GOR MANGGA DUA SELATAN,2021-07-14T10:00:00,2021-07-14T10:00:00.000Z,7/14/2021,10:00:00,100,94,deprecated,KOTA ADM. JAKARTA PUSAT,SAWAH BESAR,MANGGA DUA SELATAN,deprecated,"GOR MANGGA DUA SELATAN,SAWAH BESAR,JAKARTA,INDONESIA",,"(0.0, 0.0, 0.0)",0.0,0.0
57,SDN 01 PINANGSIA,2021-07-15T11:00:00,2021-07-15T11:00:00.000Z,7/15/2021,11:00:00,100,94,deprecated,KOTA ADM. JAKARTA BARAT,TAMAN SARI,PINANGSIA,deprecated,"SDN 01 PINANGSIA,TAMAN SARI,JAKARTA,INDONESIA",,"(0.0, 0.0, 0.0)",0.0,0.0
58,GOR MANGGA DUA SELATAN,2021-07-16T10:00:00,2021-07-16T10:00:00.000Z,7/16/2021,10:00:00,100,94,deprecated,KOTA ADM. JAKARTA PUSAT,SAWAH BESAR,MANGGA DUA SELATAN,deprecated,"GOR MANGGA DUA SELATAN,SAWAH BESAR,JAKARTA,INDONESIA",,"(0.0, 0.0, 0.0)",0.0,0.0
59,RPTRA MATAHARI,2021-07-15T10:00:00,2021-07-15T10:00:00.000Z,7/15/2021,10:00:00,100,94,deprecated,KOTA ADM. JAKARTA PUSAT,CEMPAKA PUTIH,CEMPAKA PUTIH TIMUR,deprecated,"RPTRA MATAHARI,CEMPAKA PUTIH,JAKARTA,INDONESIA",,"(0.0, 0.0, 0.0)",0.0,0.0
60,RPTRA SUNGAI BAMBU,2021-07-16T11:00:00,2021-07-16T11:00:00.000Z,7/16/2021,11:00:00,100,93,deprecated,KOTA ADM. JAKARTA UTARA,TANJUNG PRIOK,SUNGAI BAMBU,deprecated,"RPTRA SUNGAI BAMBU,TANJUNG PRIOK,JAKARTA,INDONESIA","RPTRA Sungai Bambu, Sungai Bambu, Tanjung Priok, Jakarta Utara, Daerah Khusus Ibukota Jakarta, 14330, Indonesia","(-6.1302611, 106.89094102845658, 0.0)",-6.1302611,106.89094102845658
61,KANTOR CAMAT CILINCING,2021-07-15T09:00:00,2021-07-15T09:00:00.000Z,7/15/2021,9:00:00,100,93,deprecated,KOTA ADM. JAKARTA UTARA,CILINCING,CILINCING,deprecated,"KANTOR CAMAT CILINCING,CILINCING,JAKARTA,INDONESIA","Kantor Camat Cilincing, Gang Rupbasan, RW 08, Cilincing, Jakarta Utara, Daerah Khusus Ibukota Jakarta, 14120, Indonesia","(-6.1022744, 106.93940911778341, 0.0)",-6.1022744,106.93940911778341
62,PUSKESMAS KELURAHAN PETOJO SELATAN,2021-07-15T10:00:00,2021-07-15T10:00:00.000Z,7/15/2021,10:00:00,100,93,deprecated,KOTA ADM. JAKARTA PUSAT,GAMBIR,PETOJO SELATAN,deprecated,"PUSKESMAS KELURAHAN PETOJO SELATAN,GAMBIR,JAKARTA,INDONESIA","Puskesmas Kelurahan Petojo Selatan, Jalan Taman Tanah Abang III, RW 04, Petojo Selatan, Gambir, Jakarta Pusat, Daerah Khusus Ibukota Jakarta, 10160, Indonesia","(-6.17687555, 106.8144249, 0.0)",-6.17687555,106.8144249
63,JAKARTA ISLAMIC CENTER,2021-07-15T11:00:00,2021-07-15T11:00:00.000Z,7/15/2021,11:00:00,100,93,deprecated,KOTA ADM. JAKARTA UTARA,KOJA,TUGU UTARA,deprecated,"JAKARTA ISLAMIC CENTER,KOJA,JAKARTA,INDONESIA","Pusat Pengkajian dan Pengembangan Islam Jakarta, Tugu Utara, Koja, Jakarta Utara, Daerah Khusus Ibukota Jakarta, 14260, Indonesia","(-6.12125, 106.91786411080503, 0.0)",-6.12125,106.91786411080503
64,PUSKESMAS KECAMATAN SETIABUDI,2021-07-15T10:00:00,2021-07-15T10:00:00.000Z,7/15/2021,10:00:00,100,93,deprecated,KOTA ADM. JAKARTA SELATAN,SETIABUDI,GUNTUR,deprecated,"PUSKESMAS KECAMATAN SETIABUDI,SETIABUDI,JAKARTA,INDONESIA","Puskesmas dan Rumah Bersalin Kecamatan Setiabudi, Jalan Halimun Raya, RW 06, Guntur, Setiabudi, Jakarta Selatan, Daerah Khusus Ibukota Jakarta, 12980, Indonesia","(-6.20695715, 106.83381395, 0.0)",-6.20695715,106.83381395
65,RUMKITLAP ARTHA GRAHAN PEDULI (AGP) ANCOL,2021-07-16T10:00:00,2021-07-16T10:00:00.000Z,7/16/2021,10:00:00,100,93,deprecated,KOTA ADM. JAKARTA UTARA,PADEMANGAN,ANCOL,deprecated,"RUMKITLAP ARTHA GRAHAN PEDULI (AGP) ANCOL,PADEMANGAN,JAKARTA,INDONESIA",,"(0.0, 0.0, 0.0)",0.0,0.0
66,RPTRA MATAHARI,2021-07-16T10:00:00,2021-07-16T10:00:00.000Z,7/16/2021,10:00:00,100,93,deprecated,KOTA ADM. JAKARTA PUSAT,CEMPAKA PUTIH,CEMPAKA PUTIH TIMUR,deprecated,"RPTRA MATAHARI,CEMPAKA PUTIH,JAKARTA,INDONESIA",,"(0.0, 0.0, 0.0)",0.0,0.0
67,SMPN 2 JAKARTA PUSAT,2021-07-15T10:00:00,2021-07-15T10:00:00.000Z,7/15/2021,10:00:00,100,92,deprecated,KOTA ADM. JAKARTA PUSAT,JOHAR BARU,JOHAR BARU,deprecated,"SMPN 2 JAKARTA PUSAT,JOHAR BARU,JAKARTA,INDONESIA",,"(0.0, 0.0, 0.0)",0.0,0.0
68,RPTRA SUNGAI BAMBU,2021-07-16T10:00:00,2021-07-16T10:00:00.000Z,7/16/2021,10:00:00,100,92,deprecated,KOTA ADM. JAKARTA UTARA,TANJUNG PRIOK,SUNGAI BAMBU,deprecated,"RPTRA SUNGAI BAMBU,TANJUNG PRIOK,JAKARTA,INDONESIA","RPTRA Sungai Bambu, Sungai Bambu, Tanjung Priok, Jakarta Utara, Daerah Khusus Ibukota Jakarta, 14330, Indonesia","(-6.1302611, 106.89094102845658, 0.0)",-6.1302611,106.89094102845658
69,GOR MANGGA DUA SELATAN,2021-07-13T10:00:00,2021-07-13T10:00:00.000Z,7/13/2021,10:00:00,100,92,deprecated,KOTA ADM. JAKARTA PUSAT,SAWAH BESAR,MANGGA DUA SELATAN,deprecated,"GOR MANGGA DUA SELATAN,SAWAH BESAR,JAKARTA,INDONESIA",,"(0.0, 0.0, 0.0)",0.0,0.0
70,RPTRA SUNGAI BAMBU,2021-07-15T09:00:00,2021-07-15T09:00:00.000Z,7/15/2021,9:00:00,100,92,deprecated,KOTA ADM. JAKARTA UTARA,TANJUNG PRIOK,SUNGAI BAMBU,deprecated,"RPTRA SUNGAI BAMBU,TANJUNG PRIOK,JAKARTA,INDONESIA","RPTRA Sungai Bambu, Sungai Bambu, Tanjung Priok, Jakarta Utara, Daerah Khusus Ibukota Jakarta, 14330, Indonesia","(-6.1302611, 106.89094102845658, 0.0)",-6.1302611,106.89094102845658
71,KANTOR CAMAT CILINCING,2021-07-16T09:00:00,2021-07-16T09:00:00.000Z,7/16/2021,9:00:00,100,92,deprecated,KOTA ADM. JAKARTA UTARA,CILINCING,CILINCING,deprecated,"KANTOR CAMAT CILINCING,CILINCING,JAKARTA,INDONESIA","Kantor Camat Cilincing, Gang Rupbasan, RW 08, Cilincing, Jakarta Utara, Daerah Khusus Ibukota Jakarta, 14120, Indonesia","(-6.1022744, 106.93940911778341, 0.0)",-6.1022744,106.93940911778341
72,GOR MANGGA DUA SELATAN,2021-07-16T11:00:00,2021-07-16T11:00:00.000Z,7/16/2021,11:00:00,100,92,deprecated,KOTA ADM. JAKARTA PUSAT,SAWAH BESAR,MANGGA DUA SELATAN,deprecated,"GOR MANGGA DUA SELATAN,SAWAH BESAR,JAKARTA,INDONESIA",,"(0.0, 0.0, 0.0)",0.0,0.0
73,RPTRA MATAHARI,2021-07-14T10:00:00,2021-07-14T10:00:00.000Z,7/14/2021,10:00:00,100,92,deprecated,KOTA ADM. JAKARTA PUSAT,CEMPAKA PUTIH,CEMPAKA PUTIH TIMUR,deprecated,"RPTRA MATAHARI,CEMPAKA PUTIH,JAKARTA,INDONESIA",,"(0.0, 0.0, 0.0)",0.0,0.0
74,AULA PUSKESMAS KECAMATAN TAMBORA,2021-07-14T10:00:00,2021-07-14T10:00:00.000Z,7/14/2021,10:00:00,100,92,deprecated,KOTA ADM. JAKARTA BARAT,TAMBORA,KRENDANG,deprecated,"AULA PUSKESMAS KECAMATAN TAMBORA,TAMBORA,JAKARTA,INDONESIA",,"(0.0, 0.0, 0.0)",0.0,0.0
75,AULA PUSKESMAS KECAMATAN TAMBORA,2021-07-13T11:00:00,2021-07-13T11:00:00.000Z,7/13/2021,11:00:00,100,92,deprecated,KOTA ADM. JAKARTA BARAT,TAMBORA,KRENDANG,deprecated,"AULA PUSKESMAS KECAMATAN TAMBORA,TAMBORA,JAKARTA,INDONESIA",,"(0.0, 0.0, 0.0)",0.0,0.0
76,PUSKESMAS KELURAHAN PETOJO SELATAN,2021-07-15T11:00:00,2021-07-15T11:00:00.000Z,7/15/2021,11:00:00,100,91,deprecated,KOTA ADM. JAKARTA PUSAT,GAMBIR,PETOJO SELATAN,deprecated,"PUSKESMAS KELURAHAN PETOJO SELATAN,GAMBIR,JAKARTA,INDONESIA","Puskesmas Kelurahan Petojo Selatan, Jalan Taman Tanah Abang III, RW 04, Petojo Selatan, Gambir, Jakarta Pusat, Daerah Khusus Ibukota Jakarta, 10160, Indonesia","(-6.17687555, 106.8144249, 0.0)",-6.17687555,106.8144249
77,RPTRA SUNGAI BAMBU,2021-07-14T10:00:00,2021-07-14T10:00:00.000Z,7/14/2021,10:00:00,100,91,deprecated,KOTA ADM. JAKARTA UTARA,TANJUNG PRIOK,SUNGAI BAMBU,deprecated,"RPTRA SUNGAI BAMBU,TANJUNG PRIOK,JAKARTA,INDONESIA","RPTRA Sungai Bambu, Sungai Bambu, Tanjung Priok, Jakarta Utara, Daerah Khusus Ibukota Jakarta, 14330, Indonesia","(-6.1302611, 106.89094102845658, 0.0)",-6.1302611,106.89094102845658
78,PUSKESMAS KECAMATAN SETIABUDI,2021-07-15T11:00:00,2021-07-15T11:00:00.000Z,7/15/2021,11:00:00,100,91,deprecated,KOTA ADM. JAKARTA SELATAN,SETIABUDI,GUNTUR,deprecated,"PUSKESMAS KECAMATAN SETIABUDI,SETIABUDI,JAKARTA,INDONESIA","Puskesmas dan Rumah Bersalin Kecamatan Setiabudi, Jalan Halimun Raya, RW 06, Guntur, Setiabudi, Jakarta Selatan, Daerah Khusus Ibukota Jakarta, 12980, Indonesia","(-6.20695715, 106.83381395, 0.0)",-6.20695715,106.83381395
79,GOR MANGGA DUA SELATAN,2021-07-15T11:00:00,2021-07-15T11:00:00.000Z,7/15/2021,11:00:00,100,91,deprecated,KOTA ADM. JAKARTA PUSAT,SAWAH BESAR,MANGGA DUA SELATAN,deprecated,"GOR MANGGA DUA SELATAN,SAWAH BESAR,JAKARTA,INDONESIA",,"(0.0, 0.0, 0.0)",0.0,0.0
80,RUMKITLAP ARTHA GRAHAN PEDULI (AGP) ANCOL,2021-07-15T10:00:00,2021-07-15T10:00:00.000Z,7/15/2021,10:00:00,100,91,deprecated,KOTA ADM. JAKARTA UTARA,PADEMANGAN,ANCOL,deprecated,"RUMKITLAP ARTHA GRAHAN PEDULI (AGP) ANCOL,PADEMANGAN,JAKARTA,INDONESIA",,"(0.0, 0.0, 0.0)",0.0,0.0
81,AULA PUSKESMAS KECAMATAN TAMBORA,2021-07-15T10:00:00,2021-07-15T10:00:00.000Z,7/15/2021,10:00:00,100,91,deprecated,KOTA ADM. JAKARTA BARAT,TAMBORA,KRENDANG,deprecated,"AULA PUSKESMAS KECAMATAN TAMBORA,TAMBORA,JAKARTA,INDONESIA",,"(0.0, 0.0, 0.0)",0.0,0.0
82,RPTRA PLANET SENEN,2021-07-14T11:00:00,2021-07-14T11:00:00.000Z,7/14/2021,11:00:00,100,91,deprecated,KOTA ADM. JAKARTA PUSAT,SENEN,SENEN,deprecated,"RPTRA PLANET SENEN,SENEN,JAKARTA,INDONESIA",,"(0.0, 0.0, 0.0)",0.0,0.0
83,PUSKESMAS KECAMATAN SETIABUDI,2021-07-16T10:00:00,2021-07-16T10:00:00.000Z,7/16/2021,10:00:00,100,91,deprecated,KOTA ADM. JAKARTA SELATAN,SETIABUDI,GUNTUR,deprecated,"PUSKESMAS KECAMATAN SETIABUDI,SETIABUDI,JAKARTA,INDONESIA","Puskesmas dan Rumah Bersalin Kecamatan Setiabudi, Jalan Halimun Raya, RW 06, Guntur, Setiabudi, Jakarta Selatan, Daerah Khusus Ibukota Jakarta, 12980, Indonesia","(-6.20695715, 106.83381395, 0.0)",-6.20695715,106.83381395
84,KANTOR CAMAT CILINCING,2021-07-15T10:00:00,2021-07-15T10:00:00.000Z,7/15/2021,10:00:00,100,91,deprecated,KOTA ADM. JAKARTA UTARA,CILINCING,CILINCING,deprecated,"KANTOR CAMAT CILINCING,CILINCING,JAKARTA,INDONESIA","Kantor Camat Cilincing, Gang Rupbasan, RW 08, Cilincing, Jakarta Utara, Daerah Khusus Ibukota Jakarta, 14120, Indonesia","(-6.1022744, 106.93940911778341, 0.0)",-6.1022744,106.93940911778341
85,RPTRA SUNGAI BAMBU,2021-07-13T11:00:00,2021-07-13T11:00:00.000Z,7/13/2021,11:00:00,100,91,deprecated,KOTA ADM. JAKARTA UTARA,TANJUNG PRIOK,SUNGAI BAMBU,deprecated,"RPTRA SUNGAI BAMBU,TANJUNG PRIOK,JAKARTA,INDONESIA","RPTRA Sungai Bambu, Sungai Bambu, Tanjung Priok, Jakarta Utara, Daerah Khusus Ibukota Jakarta, 14330, Indonesia","(-6.1302611, 106.89094102845658, 0.0)",-6.1302611,106.89094102845658
86,GOR MANGGA DUA SELATAN,2021-07-14T11:00:00,2021-07-14T11:00:00.000Z,7/14/2021,11:00:00,100,91,deprecated,KOTA ADM. JAKARTA PUSAT,SAWAH BESAR,MANGGA DUA SELATAN,deprecated,"GOR MANGGA DUA SELATAN,SAWAH BESAR,JAKARTA,INDONESIA",,"(0.0, 0.0, 0.0)",0.0,0.0
87,AULA PUSKESMAS KECAMATAN TAMBORA,2021-07-16T11:00:00,2021-07-16T11:00:00.000Z,7/16/2021,11:00:00,100,91,deprecated,KOTA ADM. JAKARTA BARAT,TAMBORA,KRENDANG,deprecated,"AULA PUSKESMAS KECAMATAN TAMBORA,TAMBORA,JAKARTA,INDONESIA",,"(0.0, 0.0, 0.0)",0.0,0.0
88,RUMKITLAP ARTHA GRAHAN PEDULI (AGP) ANCOL,2021-07-15T09:00:00,2021-07-15T09:00:00.000Z,7/15/2021,9:00:00,100,91,deprecated,KOTA ADM. JAKARTA UTARA,PADEMANGAN,ANCOL,deprecated,"RUMKITLAP ARTHA GRAHAN PEDULI (AGP) ANCOL,PADEMANGAN,JAKARTA,INDONESIA",,"(0.0, 0.0, 0.0)",0.0,0.0
89,AULA PUSKESMAS KECAMATAN TAMBORA,2021-07-15T11:00:00,2021-07-15T11:00:00.000Z,7/15/2021,11:00:00,100,91,deprecated,KOTA ADM. JAKARTA BARAT,TAMBORA,KRENDANG,deprecated,"AULA PUSKESMAS KECAMATAN TAMBORA,TAMBORA,JAKARTA,INDONESIA",,"(0.0, 0.0, 0.0)",0.0,0.0
90,SMK 3 KEMAYORAN,2021-07-15T10:00:00,2021-07-15T10:00:00.000Z,7/15/2021,10:00:00,100,90,deprecated,KOTA ADM. JAKARTA PUSAT,KEMAYORAN,GUNUNG SAHARI SELATAN,deprecated,"SMK 3 KEMAYORAN,KEMAYORAN,JAKARTA,INDONESIA",,"(0.0, 0.0, 0.0)",0.0,0.0
91,AULA PUSKESMAS KECAMATAN TAMBORA,2021-07-14T09:00:00,2021-07-14T09:00:00.000Z,7/14/2021,9:00:00,100,90,deprecated,KOTA ADM. JAKARTA BARAT,TAMBORA,KRENDANG,deprecated,"AULA PUSKESMAS KECAMATAN TAMBORA,TAMBORA,JAKARTA,INDONESIA",,"(0.0, 0.0, 0.0)",0.0,0.0
92,PUSKESMAS KECAMATAN SETIABUDI,2021-07-15T09:00:00,2021-07-15T09:00:00.000Z,7/15/2021,9:00:00,100,90,deprecated,KOTA ADM. JAKARTA SELATAN,SETIABUDI,GUNTUR,deprecated,"PUSKESMAS KECAMATAN SETIABUDI,SETIABUDI,JAKARTA,INDONESIA","Puskesmas dan Rumah Bersalin Kecamatan Setiabudi, Jalan Halimun Raya, RW 06, Guntur, Setiabudi, Jakarta Selatan, Daerah Khusus Ibukota Jakarta, 12980, Indonesia","(-6.20695715, 106.83381395, 0.0)",-6.20695715,106.83381395
93,SMPN 2 JAKARTA PUSAT,2021-07-16T10:00:00,2021-07-16T10:00:00.000Z,7/16/2021,10:00:00,100,90,deprecated,KOTA ADM. JAKARTA PUSAT,JOHAR BARU,JOHAR BARU,deprecated,"SMPN 2 JAKARTA PUSAT,JOHAR BARU,JAKARTA,INDONESIA",,"(0.0, 0.0, 0.0)",0.0,0.0
94,JAKARTA ISLAMIC CENTER,2021-07-15T09:00:00,2021-07-15T09:00:00.000Z,7/15/2021,9:00:00,100,90,deprecated,KOTA ADM. JAKARTA UTARA,KOJA,TUGU UTARA,deprecated,"JAKARTA ISLAMIC CENTER,KOJA,JAKARTA,INDONESIA","Pusat Pengkajian dan Pengembangan Islam Jakarta, Tugu Utara, Koja, Jakarta Utara, Daerah Khusus Ibukota Jakarta, 14260, Indonesia","(-6.12125, 106.91786411080503, 0.0)",-6.12125,106.91786411080503
95,AULA PUSKESMAS KECAMATAN TAMBORA,2021-07-16T10:00:00,2021-07-16T10:00:00.000Z,7/16/2021,10:00:00,100,90,deprecated,KOTA ADM. JAKARTA BARAT,TAMBORA,KRENDANG,deprecated,"AULA PUSKESMAS KECAMATAN TAMBORA,TAMBORA,JAKARTA,INDONESIA",,"(0.0, 0.0, 0.0)",0.0,0.0
96,RPTRA PLANET SENEN,2021-07-14T09:00:00,2021-07-14T09:00:00.000Z,7/14/2021,9:00:00,100,90,deprecated,KOTA ADM. JAKARTA PUSAT,SENEN,SENEN,deprecated,"RPTRA PLANET SENEN,SENEN,JAKARTA,INDONESIA",,"(0.0, 0.0, 0.0)",0.0,0.0
97,PUSKESMAS KELURAHAN PETOJO SELATAN,2021-07-16T11:00:00,2021-07-16T11:00:00.000Z,7/16/2021,11:00:00,100,90,deprecated,KOTA ADM. JAKARTA PUSAT,GAMBIR,PETOJO SELATAN,deprecated,"PUSKESMAS KELURAHAN PETOJO SELATAN,GAMBIR,JAKARTA,INDONESIA","Puskesmas Kelurahan Petojo Selatan, Jalan Taman Tanah Abang III, RW 04, Petojo Selatan, Gambir, Jakarta Pusat, Daerah Khusus Ibukota Jakarta, 10160, Indonesia","(-6.17687555, 106.8144249, 0.0)",-6.17687555,106.8144249
98,RPTRA SUNGAI BAMBU,2021-07-14T09:00:00,2021-07-14T09:00:00.000Z,7/14/2021,9:00:00,100,90,deprecated,KOTA ADM. JAKARTA UTARA,TANJUNG PRIOK,SUNGAI BAMBU,deprecated,"RPTRA SUNGAI BAMBU,TANJUNG PRIOK,JAKARTA,INDONESIA","RPTRA Sungai Bambu, Sungai Bambu, Tanjung Priok, Jakarta Utara, Daerah Khusus Ibukota Jakarta, 14330, Indonesia","(-6.1302611, 106.89094102845658, 0.0)",-6.1302611,106.89094102845658
99,PUSKESMAS KELURAHAN PETOJO SELATAN,2021-07-13T11:00:00,2021-07-13T11:00:00.000Z,7/13/2021,11:00:00,100,90,deprecated,KOTA ADM. JAKARTA PUSAT,GAMBIR,PETOJO SELATAN,deprecated,"PUSKESMAS KELURAHAN PETOJO SELATAN,GAMBIR,JAKARTA,INDONESIA","Puskesmas Kelurahan Petojo Selatan, Jalan Taman Tanah Abang III, RW 04, Petojo Selatan, Gambir, Jakarta Pusat, Daerah Khusus Ibukota Jakarta, 10160, Indonesia","(-6.17687555, 106.8144249, 0.0)",-6.17687555,106.8144249
100,SMK 3 KEMAYORAN,2021-07-16T11:00:00,2021-07-16T11:00:00.000Z,7/16/2021,11:00:00,100,89,deprecated,KOTA ADM. JAKARTA PUSAT,KEMAYORAN,GUNUNG SAHARI SELATAN,deprecated,"SMK 3 KEMAYORAN,KEMAYORAN,JAKARTA,INDONESIA",,"(0.0, 0.0, 0.0)",0.0,0.0
101,GELANGGANG REMAJA KECAMATAN KELAPA GADING,2021-07-15T09:00:00,2021-07-15T09:00:00.000Z,7/15/2021,9:00:00,100,89,deprecated,KOTA ADM. JAKARTA UTARA,KELAPA GADING,KELAPA GADING TIIMUR,deprecated,"GELANGGANG REMAJA KECAMATAN KELAPA GADING,KELAPA GADING,JAKARTA,INDONESIA","Gelanggang Remaja Kecamatan Kelapa Gading, Jalan Kuning Mas, RW 10, Kelapa Gading Timur, Kelapa Gading, Jakarta Utara, Daerah Khusus Ibukota Jakarta, 14240, Indonesia","(-6.1644570000000005, 106.90853955, 0.0)",-6.1644570000000005,106.90853955
102,AULA PUSKESMAS KECAMATAN TAMBORA,2021-07-13T10:00:00,2021-07-13T10:00:00.000Z,7/13/2021,10:00:00,100,89,deprecated,KOTA ADM. JAKARTA BARAT,TAMBORA,KRENDANG,deprecated,"AULA PUSKESMAS KECAMATAN TAMBORA,TAMBORA,JAKARTA,INDONESIA",,"(0.0, 0.0, 0.0)",0.0,0.0
103,PUSKESMAS KELURAHAN PETOJO SELATAN,2021-07-13T10:00:00,2021-07-13T10:00:00.000Z,7/13/2021,10:00:00,100,89,deprecated,KOTA ADM. JAKARTA PUSAT,GAMBIR,PETOJO SELATAN,deprecated,"PUSKESMAS KELURAHAN PETOJO SELATAN,GAMBIR,JAKARTA,INDONESIA","Puskesmas Kelurahan Petojo Selatan, Jalan Taman Tanah Abang III, RW 04, Petojo Selatan, Gambir, Jakarta Pusat, Daerah Khusus Ibukota Jakarta, 10160, Indonesia","(-6.17687555, 106.8144249, 0.0)",-6.17687555,106.8144249
104,SMK 3 KEMAYORAN,2021-07-15T09:00:00,2021-07-15T09:00:00.000Z,7/15/2021,9:00:00,100,89,deprecated,KOTA ADM. JAKARTA PUSAT,KEMAYORAN,GUNUNG SAHARI SELATAN,deprecated,"SMK 3 KEMAYORAN,KEMAYORAN,JAKARTA,INDONESIA",,"(0.0, 0.0, 0.0)",0.0,0.0
105,PUSKESMAS KELURAHAN PETOJO SELATAN,2021-07-15T09:00:00,2021-07-15T09:00:00.000Z,7/15/2021,9:00:00,100,89,deprecated,KOTA ADM. JAKARTA PUSAT,GAMBIR,PETOJO SELATAN,deprecated,"PUSKESMAS KELURAHAN PETOJO SELATAN,GAMBIR,JAKARTA,INDONESIA","Puskesmas Kelurahan Petojo Selatan, Jalan Taman Tanah Abang III, RW 04, Petojo Selatan, Gambir, Jakarta Pusat, Daerah Khusus Ibukota Jakarta, 10160, Indonesia","(-6.17687555, 106.8144249, 0.0)",-6.17687555,106.8144249
106,SDN 01 PINANGSIA,2021-07-16T10:00:00,2021-07-16T10:00:00.000Z,7/16/2021,10:00:00,100,89,deprecated,KOTA ADM. JAKARTA BARAT,TAMAN SARI,PINANGSIA,deprecated,"SDN 01 PINANGSIA,TAMAN SARI,JAKARTA,INDONESIA",,"(0.0, 0.0, 0.0)",0.0,0.0
107,RPTRA SUNGAI BAMBU,2021-07-15T10:00:00,2021-07-15T10:00:00.000Z,7/15/2021,10:00:00,100,88,deprecated,KOTA ADM. JAKARTA UTARA,TANJUNG PRIOK,SUNGAI BAMBU,deprecated,"RPTRA SUNGAI BAMBU,TANJUNG PRIOK,JAKARTA,INDONESIA","RPTRA Sungai Bambu, Sungai Bambu, Tanjung Priok, Jakarta Utara, Daerah Khusus Ibukota Jakarta, 14330, Indonesia","(-6.1302611, 106.89094102845658, 0.0)",-6.1302611,106.89094102845658
108,RUMKITLAP ARTHA GRAHAN PEDULI (AGP) ANCOL,2021-07-13T11:00:00,2021-07-13T11:00:00.000Z,7/13/2021,11:00:00,100,88,deprecated,KOTA ADM. JAKARTA UTARA,PADEMANGAN,ANCOL,deprecated,"RUMKITLAP ARTHA GRAHAN PEDULI (AGP) ANCOL,PADEMANGAN,JAKARTA,INDONESIA",,"(0.0, 0.0, 0.0)",0.0,0.0
109,GOR MANGGA DUA SELATAN,2021-07-15T09:00:00,2021-07-15T09:00:00.000Z,7/15/2021,9:00:00,100,88,deprecated,KOTA ADM. JAKARTA PUSAT,SAWAH BESAR,MANGGA DUA SELATAN,deprecated,"GOR MANGGA DUA SELATAN,SAWAH BESAR,JAKARTA,INDONESIA",,"(0.0, 0.0, 0.0)",0.0,0.0
110,AULA PUSKESMAS KECAMATAN TAMBORA,2021-07-14T11:00:00,2021-07-14T11:00:00.000Z,7/14/2021,11:00:00,100,88,deprecated,KOTA ADM. JAKARTA BARAT,TAMBORA,KRENDANG,deprecated,"AULA PUSKESMAS KECAMATAN TAMBORA,TAMBORA,JAKARTA,INDONESIA",,"(0.0, 0.0, 0.0)",0.0,0.0
111,KANTOR CAMAT CILINCING,2021-07-15T11:00:00,2021-07-15T11:00:00.000Z,7/15/2021,11:00:00,100,88,deprecated,KOTA ADM. JAKARTA UTARA,CILINCING,CILINCING,deprecated,"KANTOR CAMAT CILINCING,CILINCING,JAKARTA,INDONESIA","Kantor Camat Cilincing, Gang Rupbasan, RW 08, Cilincing, Jakarta Utara, Daerah Khusus Ibukota Jakarta, 14120, Indonesia","(-6.1022744, 106.93940911778341, 0.0)",-6.1022744,106.93940911778341
112,PUSKESMAS KELURAHAN PETOJO SELATAN,2021-07-16T10:00:00,2021-07-16T10:00:00.000Z,7/16/2021,10:00:00,100,88,deprecated,KOTA ADM. JAKARTA PUSAT,GAMBIR,PETOJO SELATAN,deprecated,"PUSKESMAS KELURAHAN PETOJO SELATAN,GAMBIR,JAKARTA,INDONESIA","Puskesmas Kelurahan Petojo Selatan, Jalan Taman Tanah Abang III, RW 04, Petojo Selatan, Gambir, Jakarta Pusat, Daerah Khusus Ibukota Jakarta, 10160, Indonesia","(-6.17687555, 106.8144249, 0.0)",-6.17687555,106.8144249
113,SDN 01 PINANGSIA,2021-07-15T09:00:00,2021-07-15T09:00:00.000Z,7/15/2021,9:00:00,100,88,deprecated,KOTA ADM. JAKARTA BARAT,TAMAN SARI,PINANGSIA,deprecated,"SDN 01 PINANGSIA,TAMAN SARI,JAKARTA,INDONESIA",,"(0.0, 0.0, 0.0)",0.0,0.0
114,RPTRA PLANET SENEN,2021-07-15T11:00:00,2021-07-15T11:00:00.000Z,7/15/2021,11:00:00,100,88,deprecated,KOTA ADM. JAKARTA PUSAT,SENEN,SENEN,deprecated,"RPTRA PLANET SENEN,SENEN,JAKARTA,INDONESIA",,"(0.0, 0.0, 0.0)",0.0,0.0
115,SDN 01 PINANGSIA,2021-07-14T10:00:00,2021-07-14T10:00:00.000Z,7/14/2021,10:00:00,100,87,deprecated,KOTA ADM. JAKARTA BARAT,TAMAN SARI,PINANGSIA,deprecated,"SDN 01 PINANGSIA,TAMAN SARI,JAKARTA,INDONESIA",,"(0.0, 0.0, 0.0)",0.0,0.0
116,SDN 01 PINANGSIA,2021-07-16T11:00:00,2021-07-16T11:00:00.000Z,7/16/2021,11:00:00,100,87,deprecated,KOTA ADM. JAKARTA BARAT,TAMAN SARI,PINANGSIA,deprecated,"SDN 01 PINANGSIA,TAMAN SARI,JAKARTA,INDONESIA",,"(0.0, 0.0, 0.0)",0.0,0.0
117,RUMKITLAP ARTHA GRAHAN PEDULI (AGP) ANCOL,2021-07-15T11:00:00,2021-07-15T11:00:00.000Z,7/15/2021,11:00:00,100,87,deprecated,KOTA ADM. JAKARTA UTARA,PADEMANGAN,ANCOL,deprecated,"RUMKITLAP ARTHA GRAHAN PEDULI (AGP) ANCOL,PADEMANGAN,JAKARTA,INDONESIA",,"(0.0, 0.0, 0.0)",0.0,0.0
118,SMPN 2 JAKARTA PUSAT,2021-07-16T09:00:00,2021-07-16T09:00:00.000Z,7/16/2021,9:00:00,100,87,deprecated,KOTA ADM. JAKARTA PUSAT,JOHAR BARU,JOHAR BARU,deprecated,"SMPN 2 JAKARTA PUSAT,JOHAR BARU,JAKARTA,INDONESIA",,"(0.0, 0.0, 0.0)",0.0,0.0
119,GELANGGANG REMAJA KECAMATAN KELAPA GADING,2021-07-15T10:00:00,2021-07-15T10:00:00.000Z,7/15/2021,10:00:00,100,87,deprecated,KOTA ADM. JAKARTA UTARA,KELAPA GADING,KELAPA GADING TIIMUR,deprecated,"GELANGGANG REMAJA KECAMATAN KELAPA GADING,KELAPA GADING,JAKARTA,INDONESIA","Gelanggang Remaja Kecamatan Kelapa Gading, Jalan Kuning Mas, RW 10, Kelapa Gading Timur, Kelapa Gading, Jakarta Utara, Daerah Khusus Ibukota Jakarta, 14240, Indonesia","(-6.1644570000000005, 106.90853955, 0.0)",-6.1644570000000005,106.90853955
120,SMPN 2 JAKARTA PUSAT,2021-07-14T09:00:00,2021-07-14T09:00:00.000Z,7/14/2021,9:00:00,100,87,deprecated,KOTA ADM. JAKARTA PUSAT,JOHAR BARU,JOHAR BARU,deprecated,"SMPN 2 JAKARTA PUSAT,JOHAR BARU,JAKARTA,INDONESIA",,"(0.0, 0.0, 0.0)",0.0,0.0
121,GELANGGANG REMAJA KECAMATAN KELAPA GADING,2021-07-15T11:00:00,2021-07-15T11:00:00.000Z,7/15/2021,11:00:00,100,87,deprecated,KOTA ADM. JAKARTA UTARA,KELAPA GADING,KELAPA GADING TIIMUR,deprecated,"GELANGGANG REMAJA KECAMATAN KELAPA GADING,KELAPA GADING,JAKARTA,INDONESIA","Gelanggang Remaja Kecamatan Kelapa Gading, Jalan Kuning Mas, RW 10, Kelapa Gading Timur, Kelapa Gading, Jakarta Utara, Daerah Khusus Ibukota Jakarta, 14240, Indonesia","(-6.1644570000000005, 106.90853955, 0.0)",-6.1644570000000005,106.90853955
122,SMK 3 KEMAYORAN,2021-07-14T10:00:00,2021-07-14T10:00:00.000Z,7/14/2021,10:00:00,100,87,deprecated,KOTA ADM. JAKARTA PUSAT,KEMAYORAN,GUNUNG SAHARI SELATAN,deprecated,"SMK 3 KEMAYORAN,KEMAYORAN,JAKARTA,INDONESIA",,"(0.0, 0.0, 0.0)",0.0,0.0
123,SMK 3 KEMAYORAN,2021-07-16T10:00:00,2021-07-16T10:00:00.000Z,7/16/2021,10:00:00,100,87,deprecated,KOTA ADM. JAKARTA PUSAT,KEMAYORAN,GUNUNG SAHARI SELATAN,deprecated,"SMK 3 KEMAYORAN,KEMAYORAN,JAKARTA,INDONESIA",,"(0.0, 0.0, 0.0)",0.0,0.0
124,SMPN 2 JAKARTA PUSAT,2021-07-15T11:00:00,2021-07-15T11:00:00.000Z,7/15/2021,11:00:00,100,87,deprecated,KOTA ADM. JAKARTA PUSAT,JOHAR BARU,JOHAR BARU,deprecated,"SMPN 2 JAKARTA PUSAT,JOHAR BARU,JAKARTA,INDONESIA",,"(0.0, 0.0, 0.0)",0.0,0.0
125,JAKARTA ISLAMIC CENTER,2021-07-14T11:00:00,2021-07-14T11:00:00.000Z,7/14/2021,11:00:00,100,87,deprecated,KOTA ADM. JAKARTA UTARA,KOJA,TUGU UTARA,deprecated,"JAKARTA ISLAMIC CENTER,KOJA,JAKARTA,INDONESIA","Pusat Pengkajian dan Pengembangan Islam Jakarta, Tugu Utara, Koja, Jakarta Utara, Daerah Khusus Ibukota Jakarta, 14260, Indonesia","(-6.12125, 106.91786411080503, 0.0)",-6.12125,106.91786411080503
126,SENTRA VAKSINASI BANK DKI- GAMBIR,2021-07-18T11:00:00,2021-07-18T11:00:00.000Z,7/18/2021,11:00:00,100,86,deprecated,KOTA ADM. JAKARTA PUSAT,GAMBIR,KEBON KELAPA,deprecated,"SENTRA VAKSINASI BANK DKI- GAMBIR,GAMBIR,JAKARTA,INDONESIA",,"(0.0, 0.0, 0.0)",0.0,0.0
127,SMP 112 PEJAGALAN,2021-07-15T11:00:00,2021-07-15T11:00:00.000Z,7/15/2021,11:00:00,100,86,deprecated,KOTA ADM. JAKARTA UTARA,PENJARINGAN,PEJAGALAN,deprecated,"SMP 112 PEJAGALAN,PENJARINGAN,JAKARTA,INDONESIA",,"(0.0, 0.0, 0.0)",0.0,0.0
128,SMP 141 JAKARTA,2021-07-15T11:00:00,2021-07-15T11:00:00.000Z,7/15/2021,11:00:00,100,86,deprecated,KOTA ADM. JAKARTA SELATAN,MAMPANG PRAPATAN,PELA MAMPANG,deprecated,"SMP 141 JAKARTA,MAMPANG PRAPATAN,JAKARTA,INDONESIA",,"(0.0, 0.0, 0.0)",0.0,0.0
129,JAKARTA ISLAMIC CENTER,2021-07-15T10:00:00,2021-07-15T10:00:00.000Z,7/15/2021,10:00:00,100,86,deprecated,KOTA ADM. JAKARTA UTARA,KOJA,TUGU UTARA,deprecated,"JAKARTA ISLAMIC CENTER,KOJA,JAKARTA,INDONESIA","Pusat Pengkajian dan Pengembangan Islam Jakarta, Tugu Utara, Koja, Jakarta Utara, Daerah Khusus Ibukota Jakarta, 14260, Indonesia","(-6.12125, 106.91786411080503, 0.0)",-6.12125,106.91786411080503
130,GELANGGANG REMAJA KECAMATAN KELAPA GADING,2021-07-14T09:00:00,2021-07-14T09:00:00.000Z,7/14/2021,9:00:00,100,86,deprecated,KOTA ADM. JAKARTA UTARA,KELAPA GADING,KELAPA GADING TIIMUR,deprecated,"GELANGGANG REMAJA KECAMATAN KELAPA GADING,KELAPA GADING,JAKARTA,INDONESIA","Gelanggang Remaja Kecamatan Kelapa Gading, Jalan Kuning Mas, RW 10, Kelapa Gading Timur, Kelapa Gading, Jakarta Utara, Daerah Khusus Ibukota Jakarta, 14240, Indonesia","(-6.1644570000000005, 106.90853955, 0.0)",-6.1644570000000005,106.90853955
131,PUSKESMAS KECAMATAN SETIABUDI,2021-07-14T09:00:00,2021-07-14T09:00:00.000Z,7/14/2021,9:00:00,100,86,deprecated,KOTA ADM. JAKARTA SELATAN,SETIABUDI,GUNTUR,deprecated,"PUSKESMAS KECAMATAN SETIABUDI,SETIABUDI,JAKARTA,INDONESIA","Puskesmas dan Rumah Bersalin Kecamatan Setiabudi, Jalan Halimun Raya, RW 06, Guntur, Setiabudi, Jakarta Selatan, Daerah Khusus Ibukota Jakarta, 12980, Indonesia","(-6.20695715, 106.83381395, 0.0)",-6.20695715,106.83381395
132,SMP 112 PEJAGALAN,2021-07-14T11:00:00,2021-07-14T11:00:00.000Z,7/14/2021,11:00:00,100,86,deprecated,KOTA ADM. JAKARTA UTARA,PENJARINGAN,PEJAGALAN,deprecated,"SMP 112 PEJAGALAN,PENJARINGAN,JAKARTA,INDONESIA",,"(0.0, 0.0, 0.0)",0.0,0.0
133,SMPN 2 JAKARTA PUSAT,2021-07-14T10:00:00,2021-07-14T10:00:00.000Z,7/14/2021,10:00:00,100,86,deprecated,KOTA ADM. JAKARTA PUSAT,JOHAR BARU,JOHAR BARU,deprecated,"SMPN 2 JAKARTA PUSAT,JOHAR BARU,JAKARTA,INDONESIA",,"(0.0, 0.0, 0.0)",0.0,0.0
134,RPTRA PLANET SENEN,2021-07-16T09:00:00,2021-07-16T09:00:00.000Z,7/16/2021,9:00:00,100,86,deprecated,KOTA ADM. JAKARTA PUSAT,SENEN,SENEN,deprecated,"RPTRA PLANET SENEN,SENEN,JAKARTA,INDONESIA",,"(0.0, 0.0, 0.0)",0.0,0.0
135,RPTRA PLANET SENEN,2021-07-16T11:00:00,2021-07-16T11:00:00.000Z,7/16/2021,11:00:00,100,86,deprecated,KOTA ADM. JAKARTA PUSAT,SENEN,SENEN,deprecated,"RPTRA PLANET SENEN,SENEN,JAKARTA,INDONESIA",,"(0.0, 0.0, 0.0)",0.0,0.0
136,KANTOR CAMAT CILINCING,2021-07-16T11:00:00,2021-07-16T11:00:00.000Z,7/16/2021,11:00:00,100,85,deprecated,KOTA ADM. JAKARTA UTARA,CILINCING,CILINCING,deprecated,"KANTOR CAMAT CILINCING,CILINCING,JAKARTA,INDONESIA","Kantor Camat Cilincing, Gang Rupbasan, RW 08, Cilincing, Jakarta Utara, Daerah Khusus Ibukota Jakarta, 14120, Indonesia","(-6.1022744, 106.93940911778341, 0.0)",-6.1022744,106.93940911778341
137,AULA PUSKESMAS KECAMATAN TAMBORA,2021-07-16T09:00:00,2021-07-16T09:00:00.000Z,7/16/2021,9:00:00,100,85,deprecated,KOTA ADM. JAKARTA BARAT,TAMBORA,KRENDANG,deprecated,"AULA PUSKESMAS KECAMATAN TAMBORA,TAMBORA,JAKARTA,INDONESIA",,"(0.0, 0.0, 0.0)",0.0,0.0
138,RPTRA PLANET SENEN,2021-07-13T11:00:00,2021-07-13T11:00:00.000Z,7/13/2021,11:00:00,100,85,deprecated,KOTA ADM. JAKARTA PUSAT,SENEN,SENEN,deprecated,"RPTRA PLANET SENEN,SENEN,JAKARTA,INDONESIA",,"(0.0, 0.0, 0.0)",0.0,0.0
139,SMPN 2 JAKARTA PUSAT,2021-07-13T10:00:00,2021-07-13T10:00:00.000Z,7/13/2021,10:00:00,100,85,deprecated,KOTA ADM. JAKARTA PUSAT,JOHAR BARU,JOHAR BARU,deprecated,"SMPN 2 JAKARTA PUSAT,JOHAR BARU,JAKARTA,INDONESIA",,"(0.0, 0.0, 0.0)",0.0,0.0
140,RPTRA SUNGAI BAMBU,2021-07-14T11:00:00,2021-07-14T11:00:00.000Z,7/14/2021,11:00:00,100,85,deprecated,KOTA ADM. JAKARTA UTARA,TANJUNG PRIOK,SUNGAI BAMBU,deprecated,"RPTRA SUNGAI BAMBU,TANJUNG PRIOK,JAKARTA,INDONESIA","RPTRA Sungai Bambu, Sungai Bambu, Tanjung Priok, Jakarta Utara, Daerah Khusus Ibukota Jakarta, 14330, Indonesia","(-6.1302611, 106.89094102845658, 0.0)",-6.1302611,106.89094102845658
141,PRUDENTIAL MALL KOKAS,2021-07-15T09:00:00,2021-07-15T09:00:00.000Z,7/15/2021,9:00:00,100,85,deprecated,KOTA ADM. JAKARTA SELATAN,TEBET,MENTENG DALAM,deprecated,"PRUDENTIAL MALL KOKAS,TEBET,JAKARTA,INDONESIA",,"(0.0, 0.0, 0.0)",0.0,0.0
142,RUMKITLAP ARTHA GRAHAN PEDULI (AGP) ANCOL,2021-07-16T09:00:00,2021-07-16T09:00:00.000Z,7/16/2021,9:00:00,100,85,deprecated,KOTA ADM. JAKARTA UTARA,PADEMANGAN,ANCOL,deprecated,"RUMKITLAP ARTHA GRAHAN PEDULI (AGP) ANCOL,PADEMANGAN,JAKARTA,INDONESIA",,"(0.0, 0.0, 0.0)",0.0,0.0
143,RUMKITLAP ARTHA GRAHAN PEDULI (AGP) ANCOL,2021-07-14T11:00:00,2021-07-14T11:00:00.000Z,7/14/2021,11:00:00,100,85,deprecated,KOTA ADM. JAKARTA UTARA,PADEMANGAN,ANCOL,deprecated,"RUMKITLAP ARTHA GRAHAN PEDULI (AGP) ANCOL,PADEMANGAN,JAKARTA,INDONESIA",,"(0.0, 0.0, 0.0)",0.0,0.0
144,RPTRA PLANET SENEN,2021-07-13T09:00:00,2021-07-13T09:00:00.000Z,7/13/2021,9:00:00,100,85,deprecated,KOTA ADM. JAKARTA PUSAT,SENEN,SENEN,deprecated,"RPTRA PLANET SENEN,SENEN,JAKARTA,INDONESIA",,"(0.0, 0.0, 0.0)",0.0,0.0
145,KANTOR CAMAT CILINCING,2021-07-14T11:00:00,2021-07-14T11:00:00.000Z,7/14/2021,11:00:00,100,84,deprecated,KOTA ADM. JAKARTA UTARA,CILINCING,CILINCING,deprecated,"KANTOR CAMAT CILINCING,CILINCING,JAKARTA,INDONESIA","Kantor Camat Cilincing, Gang Rupbasan, RW 08, Cilincing, Jakarta Utara, Daerah Khusus Ibukota Jakarta, 14120, Indonesia","(-6.1022744, 106.93940911778341, 0.0)",-6.1022744,106.93940911778341
146,PRUDENTIAL MALL KOKAS,2021-07-16T10:00:00,2021-07-16T10:00:00.000Z,7/16/2021,10:00:00,100,84,deprecated,KOTA ADM. JAKARTA SELATAN,TEBET,MENTENG DALAM,deprecated,"PRUDENTIAL MALL KOKAS,TEBET,JAKARTA,INDONESIA",,"(0.0, 0.0, 0.0)",0.0,0.0
147,JAKARTA ISLAMIC CENTER,2021-07-14T10:00:00,2021-07-14T10:00:00.000Z,7/14/2021,10:00:00,100,84,deprecated,KOTA ADM. JAKARTA UTARA,KOJA,TUGU UTARA,deprecated,"JAKARTA ISLAMIC CENTER,KOJA,JAKARTA,INDONESIA","Pusat Pengkajian dan Pengembangan Islam Jakarta, Tugu Utara, Koja, Jakarta Utara, Daerah Khusus Ibukota Jakarta, 14260, Indonesia","(-6.12125, 106.91786411080503, 0.0)",-6.12125,106.91786411080503
148,RPTRA MATAHARI,2021-07-15T09:00:00,2021-07-15T09:00:00.000Z,7/15/2021,9:00:00,100,84,deprecated,KOTA ADM. JAKARTA PUSAT,CEMPAKA PUTIH,CEMPAKA PUTIH TIMUR,deprecated,"RPTRA MATAHARI,CEMPAKA PUTIH,JAKARTA,INDONESIA",,"(0.0, 0.0, 0.0)",0.0,0.0
149,SMPN 2 JAKARTA PUSAT,2021-07-15T09:00:00,2021-07-15T09:00:00.000Z,7/15/2021,9:00:00,100,84,deprecated,KOTA ADM. JAKARTA PUSAT,JOHAR BARU,JOHAR BARU,deprecated,"SMPN 2 JAKARTA PUSAT,JOHAR BARU,JAKARTA,INDONESIA",,"(0.0, 0.0, 0.0)",0.0,0.0
150,KANTOR CAMAT CILINCING,2021-07-14T10:00:00,2021-07-14T10:00:00.000Z,7/14/2021,10:00:00,100,84,deprecated,KOTA ADM. JAKARTA UTARA,CILINCING,CILINCING,deprecated,"KANTOR CAMAT CILINCING,CILINCING,JAKARTA,INDONESIA","Kantor Camat Cilincing, Gang Rupbasan, RW 08, Cilincing, Jakarta Utara, Daerah Khusus Ibukota Jakarta, 14120, Indonesia","(-6.1022744, 106.93940911778341, 0.0)",-6.1022744,106.93940911778341
151,AULA PUSKESMAS KECAMATAN TAMBORA,2021-07-13T09:00:00,2021-07-13T09:00:00.000Z,7/13/2021,9:00:00,100,84,deprecated,KOTA ADM. JAKARTA BARAT,TAMBORA,KRENDANG,deprecated,"AULA PUSKESMAS KECAMATAN TAMBORA,TAMBORA,JAKARTA,INDONESIA",,"(0.0, 0.0, 0.0)",0.0,0.0
152,RPTRA MATAHARI,2021-07-15T11:00:00,2021-07-15T11:00:00.000Z,7/15/2021,11:00:00,100,84,deprecated,KOTA ADM. JAKARTA PUSAT,CEMPAKA PUTIH,CEMPAKA PUTIH TIMUR,deprecated,"RPTRA MATAHARI,CEMPAKA PUTIH,JAKARTA,INDONESIA",,"(0.0, 0.0, 0.0)",0.0,0.0
153,KANTOR CAMAT CILINCING,2021-07-16T10:00:00,2021-07-16T10:00:00.000Z,7/16/2021,10:00:00,100,84,deprecated,KOTA ADM. JAKARTA UTARA,CILINCING,CILINCING,deprecated,"KANTOR CAMAT CILINCING,CILINCING,JAKARTA,INDONESIA","Kantor Camat Cilincing, Gang Rupbasan, RW 08, Cilincing, Jakarta Utara, Daerah Khusus Ibukota Jakarta, 14120, Indonesia","(-6.1022744, 106.93940911778341, 0.0)",-6.1022744,106.93940911778341
154,JAKARTA ISLAMIC CENTER,2021-07-16T10:00:00,2021-07-16T10:00:00.000Z,7/16/2021,10:00:00,100,83,deprecated,KOTA ADM. JAKARTA UTARA,KOJA,TUGU UTARA,deprecated,"JAKARTA ISLAMIC CENTER,KOJA,JAKARTA,INDONESIA","Pusat Pengkajian dan Pengembangan Islam Jakarta, Tugu Utara, Koja, Jakarta Utara, Daerah Khusus Ibukota Jakarta, 14260, Indonesia","(-6.12125, 106.91786411080503, 0.0)",-6.12125,106.91786411080503
155,PUSKESMAS KELURAHAN PETOJO SELATAN,2021-07-16T09:00:00,2021-07-16T09:00:00.000Z,7/16/2021,9:00:00,100,83,deprecated,KOTA ADM. JAKARTA PUSAT,GAMBIR,PETOJO SELATAN,deprecated,"PUSKESMAS KELURAHAN PETOJO SELATAN,GAMBIR,JAKARTA,INDONESIA","Puskesmas Kelurahan Petojo Selatan, Jalan Taman Tanah Abang III, RW 04, Petojo Selatan, Gambir, Jakarta Pusat, Daerah Khusus Ibukota Jakarta, 10160, Indonesia","(-6.17687555, 106.8144249, 0.0)",-6.17687555,106.8144249
156,RUMKITLAP ARTHA GRAHAN PEDULI (AGP) ANCOL,2021-07-14T09:00:00,2021-07-14T09:00:00.000Z,7/14/2021,9:00:00,100,83,deprecated,KOTA ADM. JAKARTA UTARA,PADEMANGAN,ANCOL,deprecated,"RUMKITLAP ARTHA GRAHAN PEDULI (AGP) ANCOL,PADEMANGAN,JAKARTA,INDONESIA",,"(0.0, 0.0, 0.0)",0.0,0.0
157,SMK 3 KEMAYORAN,2021-07-15T11:00:00,2021-07-15T11:00:00.000Z,7/15/2021,11:00:00,100,83,deprecated,KOTA ADM. JAKARTA PUSAT,KEMAYORAN,GUNUNG SAHARI SELATAN,deprecated,"SMK 3 KEMAYORAN,KEMAYORAN,JAKARTA,INDONESIA",,"(0.0, 0.0, 0.0)",0.0,0.0
158,SDN 01 PINANGSIA,2021-07-14T11:00:00,2021-07-14T11:00:00.000Z,7/14/2021,11:00:00,100,83,deprecated,KOTA ADM. JAKARTA BARAT,TAMAN SARI,PINANGSIA,deprecated,"SDN 01 PINANGSIA,TAMAN SARI,JAKARTA,INDONESIA",,"(0.0, 0.0, 0.0)",0.0,0.0
159,RPTRA MATAHARI,2021-07-14T09:00:00,2021-07-14T09:00:00.000Z,7/14/2021,9:00:00,100,83,deprecated,KOTA ADM. JAKARTA PUSAT,CEMPAKA PUTIH,CEMPAKA PUTIH TIMUR,deprecated,"RPTRA MATAHARI,CEMPAKA PUTIH,JAKARTA,INDONESIA",,"(0.0, 0.0, 0.0)",0.0,0.0
160,KANTOR CAMAT CILINCING,2021-07-14T09:00:00,2021-07-14T09:00:00.000Z,7/14/2021,9:00:00,100,83,deprecated,KOTA ADM. JAKARTA UTARA,CILINCING,CILINCING,deprecated,"KANTOR CAMAT CILINCING,CILINCING,JAKARTA,INDONESIA","Kantor Camat Cilincing, Gang Rupbasan, RW 08, Cilincing, Jakarta Utara, Daerah Khusus Ibukota Jakarta, 14120, Indonesia","(-6.1022744, 106.93940911778341, 0.0)",-6.1022744,106.93940911778341
161,AULA PUSKESMAS KECAMATAN TAMBORA,2021-07-15T09:00:00,2021-07-15T09:00:00.000Z,7/15/2021,9:00:00,100,83,deprecated,KOTA ADM. JAKARTA BARAT,TAMBORA,KRENDANG,deprecated,"AULA PUSKESMAS KECAMATAN TAMBORA,TAMBORA,JAKARTA,INDONESIA",,"(0.0, 0.0, 0.0)",0.0,0.0
162,SMPN 8 JAKARTA,2021-07-16T10:00:00,2021-07-16T10:00:00.000Z,7/16/2021,10:00:00,100,83,deprecated,KOTA ADM. JAKARTA PUSAT,MENTENG,MENTENG,deprecated,"SMPN 8 JAKARTA,MENTENG,JAKARTA,INDONESIA","SMPN 8, Jalan Pangeran Diponegoro, RW 02, Menteng, Jakarta Pusat, Daerah Khusus Ibukota Jakarta, 10310, Indonesia","(-6.2011131, 106.8428777, 0.0)",-6.2011131,106.8428777
163,SMK 3 KEMAYORAN,2021-07-14T11:00:00,2021-07-14T11:00:00.000Z,7/14/2021,11:00:00,100,83,deprecated,KOTA ADM. JAKARTA PUSAT,KEMAYORAN,GUNUNG SAHARI SELATAN,deprecated,"SMK 3 KEMAYORAN,KEMAYORAN,JAKARTA,INDONESIA",,"(0.0, 0.0, 0.0)",0.0,0.0
164,KANTOR CAMAT CILINCING,2021-07-13T10:00:00,2021-07-13T10:00:00.000Z,7/13/2021,10:00:00,100,83,deprecated,KOTA ADM. JAKARTA UTARA,CILINCING,CILINCING,deprecated,"KANTOR CAMAT CILINCING,CILINCING,JAKARTA,INDONESIA","Kantor Camat Cilincing, Gang Rupbasan, RW 08, Cilincing, Jakarta Utara, Daerah Khusus Ibukota Jakarta, 14120, Indonesia","(-6.1022744, 106.93940911778341, 0.0)",-6.1022744,106.93940911778341
165,PRUDENTIAL MALL KOKAS,2021-07-15T10:00:00,2021-07-15T10:00:00.000Z,7/15/2021,10:00:00,100,83,deprecated,KOTA ADM. JAKARTA SELATAN,TEBET,MENTENG DALAM,deprecated,"PRUDENTIAL MALL KOKAS,TEBET,JAKARTA,INDONESIA",,"(0.0, 0.0, 0.0)",0.0,0.0
166,SMP 112 PEJAGALAN,2021-07-14T10:00:00,2021-07-14T10:00:00.000Z,7/14/2021,10:00:00,100,83,deprecated,KOTA ADM. JAKARTA UTARA,PENJARINGAN,PEJAGALAN,deprecated,"SMP 112 PEJAGALAN,PENJARINGAN,JAKARTA,INDONESIA",,"(0.0, 0.0, 0.0)",0.0,0.0
167,PUSKESMAS KELURAHAN PETOJO SELATAN,2021-07-14T10:00:00,2021-07-14T10:00:00.000Z,7/14/2021,10:00:00,100,83,deprecated,KOTA ADM. JAKARTA PUSAT,GAMBIR,PETOJO SELATAN,deprecated,"PUSKESMAS KELURAHAN PETOJO SELATAN,GAMBIR,JAKARTA,INDONESIA","Puskesmas Kelurahan Petojo Selatan, Jalan Taman Tanah Abang III, RW 04, Petojo Selatan, Gambir, Jakarta Pusat, Daerah Khusus Ibukota Jakarta, 10160, Indonesia","(-6.17687555, 106.8144249, 0.0)",-6.17687555,106.8144249
168,PUSKESMAS KECAMATAN SETIABUDI,2021-07-16T11:00:00,2021-07-16T11:00:00.000Z,7/16/2021,11:00:00,100,82,deprecated,KOTA ADM. JAKARTA SELATAN,SETIABUDI,GUNTUR,deprecated,"PUSKESMAS KECAMATAN SETIABUDI,SETIABUDI,JAKARTA,INDONESIA","Puskesmas dan Rumah Bersalin Kecamatan Setiabudi, Jalan Halimun Raya, RW 06, Guntur, Setiabudi, Jakarta Selatan, Daerah Khusus Ibukota Jakarta, 12980, Indonesia","(-6.20695715, 106.83381395, 0.0)",-6.20695715,106.83381395
169,RPTRA SUNGAI BAMBU,2021-07-16T09:00:00,2021-07-16T09:00:00.000Z,7/16/2021,9:00:00,100,82,deprecated,KOTA ADM. JAKARTA UTARA,TANJUNG PRIOK,SUNGAI BAMBU,deprecated,"RPTRA SUNGAI BAMBU,TANJUNG PRIOK,JAKARTA,INDONESIA","RPTRA Sungai Bambu, Sungai Bambu, Tanjung Priok, Jakarta Utara, Daerah Khusus Ibukota Jakarta, 14330, Indonesia","(-6.1302611, 106.89094102845658, 0.0)",-6.1302611,106.89094102845658
170,SMP 112 PEJAGALAN,2021-07-16T10:00:00,2021-07-16T10:00:00.000Z,7/16/2021,10:00:00,100,82,deprecated,KOTA ADM. JAKARTA UTARA,PENJARINGAN,PEJAGALAN,deprecated,"SMP 112 PEJAGALAN,PENJARINGAN,JAKARTA,INDONESIA",,"(0.0, 0.0, 0.0)",0.0,0.0
171,PUSKESMAS KELURAHAN KEBON MANGGIS,2021-07-26T10:00:00,2021-07-26T10:00:00.000Z,7/26/2021,10:00:00,1,0,deprecated,KOTA ADM. JAKARTA TIMUR,MATRAMAN,KEBON MANGGIS,deprecated,"PUSKESMAS KELURAHAN KEBON MANGGIS,MATRAMAN,JAKARTA,INDONESIA","Puskesmas Kelurahan Kebon Manggis, Jalan Slamet Riyadi II, RW 04, Kebon Manggis, Matraman, Jakarta Timur, Daerah Khusus Ibukota Jakarta, 13110, Indonesia","(-6.2107635000000005, 106.8586035, 0.0)",-6.2107635000000005,106.8586035
172,RSUD TARAKAN,2021-07-08T11:00:00,2021-07-08T11:00:00.000Z,7/8/2021,11:00:00,25,0,deprecated,KOTA ADM. JAKARTA PUSAT,GAMBIR,CIDENG,deprecated,"RSUD TARAKAN,GAMBIR,JAKARTA,INDONESIA","RSUD Tarakan, 7, Jalan Biak Ujung, RW 04, Cideng, Gambir, Jakarta Pusat, Daerah Khusus Ibukota Jakarta, 10150, Indonesia","(-6.17163765, 106.81034620548138, 0.0)",-6.17163765,106.81034620548138
173,PUSKESMAS KELURAHAN CIPAYUNG,2021-07-09T10:00:00,2021-07-09T10:00:00.000Z,7/9/2021,10:00:00,2,0,deprecated,KOTA ADM. JAKARTA TIMUR,CIPAYUNG,CIPAYUNG,deprecated,"PUSKESMAS KELURAHAN CIPAYUNG,CIPAYUNG,JAKARTA,INDONESIA","Puskesmas Kelurahan Cipayung, Jalan Budi Murni, RW 03, Cipayung, Jakarta Timur, Daerah Khusus Ibukota Jakarta, 13890, Indonesia","(-6.3332540999999996, 106.89473011291366, 0.0)",-6.3332540999999996,106.89473011291366
174,PUSKESMAS KELURAHAN CIPINANG CEMPEDAK,2021-07-08T08:00:00,2021-07-08T08:00:00.000Z,7/8/2021,8:00:00,5,0,deprecated,KOTA ADM. JAKARTA TIMUR,JATINEGARA,CIPINANG CEMPEDAK,deprecated,"PUSKESMAS KELURAHAN CIPINANG CEMPEDAK,JATINEGARA,JAKARTA,INDONESIA","Puskesmas Kelurahan Cipinang Cempedak, Jalan Cipinang Cempedak IV, RW 03, Cipinang Cempedak, Jatinegara, Jakarta Timur, Daerah Khusus Ibukota Jakarta, 13330, Indonesia","(-6.2389218500000005, 106.87345356302714, 0.0)",-6.2389218500000005,106.87345356302714
175,PUSKESMAS KELURAHAN CILANDAK TIMUR,2021-07-30T13:00:00,2021-07-30T13:00:00.000Z,7/30/2021,13:00:00,10,0,deprecated,KOTA ADM. JAKARTA SELATAN,PASAR MINGGU,CILANDAK TIMUR,deprecated,"PUSKESMAS KELURAHAN CILANDAK TIMUR,PASAR MINGGU,JAKARTA,INDONESIA",,"(0.0, 0.0, 0.0)",0.0,0.0
176,RSUD KEMAYORAN,2021-07-08T10:00:00,2021-07-08T10:00:00.000Z,7/8/2021,10:00:00,18,0,deprecated,KOTA ADM. JAKARTA PUSAT,KEMAYORAN,SERDANG,deprecated,"RSUD KEMAYORAN,KEMAYORAN,JAKARTA,INDONESIA","RSUD Kecamatan Kemayoran, Jalan Serdang I, RW 05, Serdang, Kemayoran, Jakarta Pusat, Daerah Khusus Ibukota Jakarta, 10640, Indonesia","(-6.1566836, 106.86377994562443, 0.0)",-6.1566836,106.86377994562443
177,PUSKESMAS KELURAHAN RAWA BUNGA,2021-07-19T09:00:00,2021-07-19T09:00:00.000Z,7/19/2021,9:00:00,5,0,deprecated,KOTA ADM. JAKARTA TIMUR,JATINEGARA,RAWA BUNGA,deprecated,"PUSKESMAS KELURAHAN RAWA BUNGA,JATINEGARA,JAKARTA,INDONESIA","Puskesmas Kelurahan Rawa Bunga, Jalan Jatinegara Timur IV, RW 07, Rawa Bunga, Jatinegara, Jakarta Timur, Daerah Khusus Ibukota Jakarta, 13310, Indonesia","(-6.2213196, 106.87019121156217, 0.0)",-6.2213196,106.87019121156217
178,SMPN 12 JAKARTA,2021-07-13T10:00:00,2021-07-13T10:00:00.000Z,7/13/2021,10:00:00,100,0,deprecated,KOTA ADM. JAKARTA SELATAN,KEBAYORAN BARU,MELAWAI,deprecated,"SMPN 12 JAKARTA,KEBAYORAN BARU,JAKARTA,INDONESIA",,"(0.0, 0.0, 0.0)",0.0,0.0
179,PUSKESMAS KELURAHAN PALMERIAM,2021-07-08T11:00:00,2021-07-08T11:00:00.000Z,7/8/2021,11:00:00,1,0,deprecated,KOTA ADM. JAKARTA TIMUR,MATRAMAN,PALMERIAM,deprecated,"PUSKESMAS KELURAHAN PALMERIAM,MATRAMAN,JAKARTA,INDONESIA","Puskesmas Kelurahan Kayu Manis, Jalan Kayu Manis Timur Gang M, RW 02, Kayu Manis, Matraman, Jakarta Timur, Daerah Khusus Ibukota Jakarta, 13140, Indonesia","(-6.19779915, 106.86080669730339, 0.0)",-6.19779915,106.86080669730339
